NORAD_CAT_ID,OBJECT_NAME,OBJECT_TYPE,EPOCH,MEAN_MOTION,ECCENTRICITY,INCLINATION,RA_OF_ASC_NODE,ARG_OF_PERICENTER,MEAN_ANOMALY,BSTAR,MEAN_MOTION_DOT,MEAN_MOTION_DDOT,TLE_LINE0,TLE_LINE1,TLE_LINE2,SEMIMAJOR_AXIS,PERIOD,APOGEE,PERIGEE,DECAYED
50840.0,STARLINK-3295,PAYLOAD,2023-09-29 07:02:36,15.08854672,0.0001425,53.2169,225.239,124.0392,236.0735,0.00051398,7.905e-05,0.0,0 STARLINK-3295,1 50840U 22001AP  23272.29347785  .00007905  00000-0  51398-3 0  9993,2 50840  53.2169 225.2390 0001425 124.0392 236.0735 15.08854672 96828,6917.836,95.437,540.686,538.715,0.0
50840.0,STARLINK-3295,PAYLOAD,2023-09-30 03:42:37,15.08855095,0.0001414,53.2171,221.3744,89.7132,270.4022,0.00032833,4.943e-05,0.0,0 STARLINK-3295,1 50840U 22001AP  23273.15459713  .00004943  00000-0  32833-3 0  9996,2 50840  53.2171 221.3744 0001414  89.7132 270.4022 15.08855095 96953,6917.834,95.437,540.677,538.721,0.0
50840.0,STARLINK-3295,PAYLOAD,2023-09-30 13:14:56,15.0884722,0.0001521,53.2183,219.5924,93.8193,266.2973,9.6234e-05,1.244e-05,0.0,0 STARLINK-3295,1 50840U 22001AP  23273.55203753  .00001244  00000-0  96234-4 0  9998,2 50840  53.2183 219.5924 0001521  93.8193 266.2973 15.08847220 97014,6917.858,95.437,540.776,538.671,0.0
50840.0,STARLINK-3295,PAYLOAD,2023-10-01 03:33:24,15.08832542,0.0001431,53.2159,216.9186,88.2304,271.8852,7.8001e-05,9.53e-06,0.0,0 STARLINK-3295,1 50840U 22001AP  23274.14820202  .00000953  00000-0  78001-4 0  9996,2 50840  53.2159 216.9186 0001431  88.2304 271.8852 15.08832542 97109,6917.903,95.438,540.758,538.778,0.0
50840.0,STARLINK-3295,PAYLOAD,2023-10-01 13:05:43,15.08838212,0.0001414,53.2159,215.1341,95.2389,264.8765,0.00056989,8.793e-05,0.0,0 STARLINK-3295,1 50840U 22001AP  23274.54564506  .00008793  00000-0  56989-3 0  9992,2 50840  53.2159 215.1341 0001414  95.2389 264.8765 15.08838212 95872,6917.886,95.438,540.729,538.773,0.0
50840.0,STARLINK-3295,PAYLOAD,2023-10-02 04:59:35,15.08849748,0.0001543,53.2158,212.1598,93.6375,266.4794,0.0006639,0.00010297,0.0,0 STARLINK-3295,1 50840U 22001AP  23275.20804488  .00010297  00000-0  66390-3 0  9991,2 50840  53.2158 212.1598 0001543  93.6375 266.4794 15.08849748 97263,6917.851,95.437,540.783,538.648,0.0
50840.0,STARLINK-3295,PAYLOAD,2023-10-02 12:56:30,15.08844432,0.000174,53.2172,210.6711,88.137,271.9821,0.00033491,5.047e-05,0.0,0 STARLINK-3295,1 50840U 22001AP  23275.53924605  .00005047  00000-0  33491-3 0  9994,2 50840  53.2172 210.6711 0001740  88.1370 271.9821 15.08844432 97315,6917.867,95.437,540.936,538.528,0.0
50840.0,STARLINK-3295,PAYLOAD,2023-10-03 04:50:22,15.08840768,0.0001483,53.2165,207.698,87.564,272.5522,0.00013957,1.934e-05,0.0,0 STARLINK-3295,1 50840U 22001AP  23276.20164717  .00001934  00000-0  13957-3 0  9995,2 50840  53.2165 207.6980 0001483  87.5640 272.5522 15.08840768 97412,6917.878,95.438,540.769,538.717,0.0
50840.0,STARLINK-3295,PAYLOAD,2023-10-04 04:41:09,15.08839642,0.0001489,53.2171,203.2367,87.4384,272.6779,6.0927e-05,6.82e-06,0.0,0 STARLINK-3295,1 50840U 22001AP  23277.19524985  .00000682  00000-0  60927-4 0  9990,2 50840  53.2171 203.2367 0001489  87.4384 272.6779 15.08839642 97560,6917.881,95.438,540.777,538.716,0.0
50840.0,STARLINK-3295,PAYLOAD,2023-10-04 12:38:05,15.08844489,0.0001358,53.2167,201.7507,95.824,264.2907,6.5804e-05,7.6e-06,0.0,0 STARLINK-3295,1 50840U 22001AP  23277.52644741  .00000760  00000-0  65804-4 0  9996,2 50840  53.2167 201.7507 0001358  95.8240 264.2907 15.08844489 96321,6917.867,95.437,540.671,538.792,0.0
50840.0,STARLINK-3295,PAYLOAD,2023-10-04 18:59:38,15.08831258,0.0001358,53.2165,200.5621,95.093,265.0218,0.00046875,7.178e-05,0.0,0 STARLINK-3295,1 50840U 22001AP  23277.79141599  .00007178  00000-0  46875-3 0  9994,2 50840  53.2165 200.5621 0001358  95.0930 265.0218 15.08831258 97652,6917.907,95.438,540.712,538.833,0.0
50840.0,STARLINK-3295,PAYLOAD,2023-10-05 01:21:09,15.08852292,0.0001306,53.2167,199.3717,111.2886,248.8245,0.00036454,5.52e-05,0.0,0 STARLINK-3295,1 50840U 22001AP  23278.05636241  .00005520  00000-0  36454-3 0  9998,2 50840  53.2167 199.3717 0001306 111.2886 248.8245 15.08852292 97693,6917.843,95.437,540.611,538.804,0.0
50840.0,STARLINK-3295,PAYLOAD,2023-10-05 12:28:51,15.08848878,0.0001167,53.2167,197.2902,96.7451,263.3674,0.00019878,2.878e-05,0.0,0 STARLINK-3295,1 50840U 22001AP  23278.52004331  .00002878  00000-0  19878-3 0  9993,2 50840  53.2167 197.2902 0001167  96.7451 263.3674 15.08848878 96474,6917.853,95.437,540.526,538.911,0.0
50840.0,STARLINK-3295,PAYLOAD,2023-10-05 22:01:10,15.08842548,0.0001666,53.2173,195.504,110.7032,249.4139,0.00014313,1.991e-05,0.0,0 STARLINK-3295,1 50840U 22001AP  23278.91748702  .00001991  00000-0  14313-3 0  9997,2 50840  53.2173 195.5040 0001666 110.7032 249.4139 15.08842548 96537,6917.873,95.437,540.89,538.585,0.0
50840.0,STARLINK-3295,PAYLOAD,2023-10-06 04:22:43,15.08845277,0.0001671,53.2175,194.3132,115.6227,244.4938,0.00016454,2.332e-05,0.0,0 STARLINK-3295,1 50840U 22001AP  23279.18244480  .00002332  00000-0  16454-3 0  9999,2 50840  53.2175 194.3132 0001671 115.6227 244.4938 15.08845277 97865,6917.864,95.437,540.885,538.573,0.0
50840.0,STARLINK-3295,PAYLOAD,2023-10-06 21:51:58,15.08835862,0.0001578,53.217,191.0455,112.5436,247.5724,-2.7492e-06,-3.32e-06,0.0,0 STARLINK-3295,1 50840U 22001AP  23279.91109180 -.00000332  00000-0 -27492-5 0  9993,2 50840  53.2170 191.0455 0001578 112.5436 247.5724 15.08835862 96681,6917.893,95.438,540.85,538.666,0.0
50840.0,STARLINK-3295,PAYLOAD,2023-10-07 01:02:44,15.08842462,0.0001357,53.2161,190.4504,102.0782,258.0362,-1.3851e-05,-5.08e-06,0.0,0 STARLINK-3295,1 50840U 22001AP  23280.04356875 -.00000508  00000-0 -13851-4 0  9992,2 50840  53.2161 190.4504 0001357 102.0782 258.0362 15.08842462 97996,6917.873,95.437,540.677,538.799,0.0
50840.0,STARLINK-3295,PAYLOAD,2023-10-07 10:35:03,15.08839138,0.0001344,53.2162,188.6669,103.4653,256.6489,7.9392e-05,9.76e-06,0.0,0 STARLINK-3295,1 50840U 22001AP  23280.44101140  .00000976  00000-0  79392-4 0  9998,2 50840  53.2162 188.6669 0001344 103.4653 256.6489 15.08839138 96760,6917.883,95.438,540.678,538.818,0.0
50840.0,STARLINK-3295,PAYLOAD,2023-10-07 18:31:59,15.08831217,0.000174,53.2158,187.1803,102.3334,257.7853,5.2058e-05,5.4e-06,0.0,0 STARLINK-3295,1 50840U 22001AP  23280.77221661  .00000540  00000-0  52058-4 0  9992,2 50840  53.2158 187.1803 0001740 102.3334 257.7853 15.08831217 98100,6917.907,95.438,540.976,538.569,0.0
50840.0,STARLINK-3295,PAYLOAD,2023-10-07 21:42:45,15.08834266,0.0001892,53.2177,186.5854,96.2473,263.8735,8.9851e-05,1.142e-05,0.0,0 STARLINK-3295,1 50840U 22001AP  23280.90469854  .00001142  00000-0  89851-4 0  9995,2 50840  53.2177 186.5854 0001892  96.2473 263.8735 15.08834266 96835,6917.898,95.438,541.072,538.454,0.0
50840.0,STARLINK-3295,PAYLOAD,2023-10-08 00:53:31,15.08842016,0.0001448,53.2168,185.9941,93.5074,266.6084,0.0001342,1.849e-05,0.0,0 STARLINK-3295,1 50840U 22001AP  23281.03717206  .00001849  00000-0  13420-3 0  9999,2 50840  53.2168 185.9941 0001448  93.5074 266.6084 15.08842016 98145,6917.874,95.437,540.741,538.738,0.0
50840.0,STARLINK-3295,PAYLOAD,2023-10-08 10:25:50,15.08843959,0.0001596,53.2177,184.2101,87.8801,272.2374,0.00020845,3.031e-05,0.0,0 STARLINK-3295,1 50840U 22001AP  23281.43461307  .00003031  00000-0  20845-3 0  9995,2 50840  53.2177 184.2101 0001596  87.8801 272.2374 15.08843959 96918,6917.868,95.437,540.837,538.629,0.0
50840.0,STARLINK-3295,PAYLOAD,2023-10-08 18:22:46,15.08841402,0.0001603,53.2175,182.7228,102.4478,257.6693,0.0001271,1.735e-05,0.0,0 STARLINK-3295,1 50840U 22001AP  23281.76581633  .00001735  00000-0  12710-3 0  9997,2 50840  53.2175 182.7228 0001603 102.4478 257.6693 15.08841402 98253,6917.876,95.437,540.85,538.632,0.0
50840.0,STARLINK-3295,PAYLOAD,2023-10-08 21:33:32,15.08844686,0.0001672,53.2183,182.13,106.8049,253.3127,0.00021646,3.159e-05,0.0,0 STARLINK-3295,1 50840U 22001AP  23281.89829469  .00003159  00000-0  21646-3 0  9993,2 50840  53.2183 182.1300 0001672 106.8049 253.3127 15.08844686 96985,6917.866,95.437,540.888,538.574,0.0
50840.0,STARLINK-3295,PAYLOAD,2023-10-09 03:55:04,15.08861101,0.0001642,53.2176,180.9379,94.3564,265.7616,0.00047497,7.284e-05,0.0,0 STARLINK-3295,1 50840U 22001AP  23282.16324774  .00007284  00000-0  47497-3 0  9998,2 50840  53.2176 180.9379 0001642  94.3564 265.7616 15.08861101 98319,6917.816,95.436,540.817,538.545,0.0
50840.0,STARLINK-3295,PAYLOAD,2023-10-09 10:16:38,15.08829819,0.0001633,53.217,179.7501,107.6669,252.4501,-0.00020304,-3.517e-05,0.0,0 STARLINK-3295,1 50840U 22001AP  23282.42821785 -.00003517  00000-0 -20304-3 0  9996,2 50840  53.2170 179.7501 0001633 107.6669 252.4501 15.08829819 97067,6917.912,95.438,540.906,538.647,0.0
50840.0,STARLINK-3295,PAYLOAD,2023-10-09 21:24:20,15.08835009,0.0001469,53.2175,177.6694,114.6557,245.4589,3.6042e-06,-2.31e-06,0.0,0 STARLINK-3295,1 50840U 22001AP  23282.89189853 -.00000231  00000-0  36042-5 0  9997,2 50840  53.2175 177.6694 0001469 114.6557 245.4589 15.08835009 97137,6917.896,95.438,540.777,538.744,0.0
50840.0,STARLINK-3295,PAYLOAD,2023-10-10 02:10:29,15.08847881,0.0001545,53.2173,176.7761,98.8834,261.2333,0.00039449,5.997e-05,0.0,0 STARLINK-3295,1 50840U 22001AP  23283.09061517  .00005997  00000-0  39449-3 0  9991,2 50840  53.2173 176.7761 0001545  98.8834 261.2333 15.08847881 98456,6917.856,95.437,540.79,538.652,0.0
50840.0,STARLINK-3295,PAYLOAD,2023-10-10 10:07:25,15.08841937,0.000175,53.2168,175.2867,88.4035,271.7158,0.00016795,2.386e-05,0.0,0 STARLINK-3295,1 50840U 22001AP  23283.42181725  .00002386  00000-0  16795-3 0  9990,2 50840  53.2168 175.2867 0001750  88.4035 271.7158 15.08841937 98500,6917.874,95.437,540.95,538.529,0.0
50840.0,STARLINK-3295,PAYLOAD,2023-10-10 21:15:07,15.08835089,0.0001876,53.2169,173.2045,90.8098,269.3109,4.3833e-05,4.09e-06,0.0,0 STARLINK-3295,1 50840U 22001AP  23283.88550085  .00000409  00000-0  43833-4 0  9997,2 50840  53.2169 173.2045 0001876  90.8098 269.3109 15.08835089 97286,6917.895,95.438,541.058,538.463,0.0
